[{"OBJECT_NAME":"SES-2","OBJECT_ID":"2011-049A","EPOCH":"2026-04-04T04:18:38.607264","MEAN_MOTION":1.00272411,"ECCENTRICITY":0.00029484,"INCLINATION":0.0544,"RA_OF_ASC_NODE":65.7512,"ARG_OF_PERICENTER":309.8626,"MEAN_ANOMALY":154.5451,"EPHEMERIS_TYPE":0,"CLASSIFICATION_TYPE":"U","NORAD_CAT_ID":37809,"ELEMENT_SET_NO":999,"REV_AT_EPOCH":5322,"BSTAR":0,"MEAN_MOTION_DOT":-1.97e-6,"MEAN_MOTION_DDOT":0},{"OBJECT_NAME":"QUETZSAT 1","OBJECT_ID":"2011-054A","EPOCH":"2026-04-04T05:34:28.419168","MEAN_MOTION":1.00272088,"ECCENTRICITY":0.0002321,"INCLINATION":0.0494,"RA_OF_ASC_NODE":59.2742,"ARG_OF_PERICENTER":313.5282,"MEAN_ANOMALY":186.374,"EPHEMERIS_TYPE":0,"CLASSIFICATION_TYPE":"U","NORAD_CAT_ID":37826,"ELEMENT_SET_NO":999,"REV_AT_EPOCH":4913,"BSTAR":0,"MEAN_MOTION_DOT":-2.42e-6,"MEAN_MOTION_DDOT":0},{"OBJECT_NAME":"SES-4","OBJECT_ID":"2012-007A","EPOCH":"2026-04-04T05:11:38.889312","MEAN_MOTION":1.00271821,"ECCENTRICITY":0.00022675,"INCLINATION":0.0293,"RA_OF_ASC_NODE":65.6049,"ARG_OF_PERICENTER":315.9599,"MEAN_ANOMALY":226.8854,"EPHEMERIS_TYPE":0,"CLASSIFICATION_TYPE":"U","NORAD_CAT_ID":38087,"ELEMENT_SET_NO":999,"REV_AT_EPOCH":5148,"BSTAR":0,"MEAN_MOTION_DOT":-1.69e-6,"MEAN_MOTION_DDOT":0},{"OBJECT_NAME":"SES-5","OBJECT_ID":"2012-036A","EPOCH":"2026-04-04T04:15:13.519584","MEAN_MOTION":1.00270782,"ECCENTRICITY":0.00019816,"INCLINATION":0.0597,"RA_OF_ASC_NODE":304.3178,"ARG_OF_PERICENTER":71.5629,"MEAN_ANOMALY":245.3841,"EPHEMERIS_TYPE":0,"CLASSIFICATION_TYPE":"U","NORAD_CAT_ID":38652,"ELEMENT_SET_NO":999,"REV_AT_EPOCH":4371,"BSTAR":0,"MEAN_MOTION_DOT":3.3e-7,"MEAN_MOTION_DDOT":0},{"OBJECT_NAME":"ASTRA 2F","OBJECT_ID":"2012-051A","EPOCH":"2026-04-04T04:31:38.667936","MEAN_MOTION":1.00269385,"ECCENTRICITY":0.00015222,"INCLINATION":0.0674,"RA_OF_ASC_NODE":255.2493,"ARG_OF_PERICENTER":31.8562,"MEAN_ANOMALY":1.5201,"EPHEMERIS_TYPE":0,"CLASSIFICATION_TYPE":"U","NORAD_CAT_ID":38778,"ELEMENT_SET_NO":999,"REV_AT_EPOCH":4039,"BSTAR":0,"MEAN_MOTION_DOT":1.49e-6,"MEAN_MOTION_DDOT":0},{"OBJECT_NAME":"SES-6","OBJECT_ID":"2013-026A","EPOCH":"2026-04-04T05:27:38.799360","MEAN_MOTION":1.00273153,"ECCENTRICITY":0.00027029,"INCLINATION":0.0403,"RA_OF_ASC_NODE":290.7766,"ARG_OF_PERICENTER":84.3301,"MEAN_ANOMALY":218.85,"EPHEMERIS_TYPE":0,"CLASSIFICATION_TYPE":"U","NORAD_CAT_ID":39172,"ELEMENT_SET_NO":999,"REV_AT_EPOCH":4698,"BSTAR":0,"MEAN_MOTION_DOT":-2.62e-6,"MEAN_MOTION_DDOT":0},{"OBJECT_NAME":"O3B FM5","OBJECT_ID":"2013-031A","EPOCH":"2026-04-04T01:56:03.706944","MEAN_MOTION":5.00116518,"ECCENTRICITY":0.00032171,"INCLINATION":0.1018,"RA_OF_ASC_NODE":5.9687,"ARG_OF_PERICENTER":357.9536,"MEAN_ANOMALY":356.0787,"EPHEMERIS_TYPE":0,"CLASSIFICATION_TYPE":"U","NORAD_CAT_ID":39188,"ELEMENT_SET_NO":999,"REV_AT_EPOCH":23333,"BSTAR":0,"MEAN_MOTION_DOT":-2.6e-7,"MEAN_MOTION_DDOT":0},{"OBJECT_NAME":"O3B FM4","OBJECT_ID":"2013-031B","EPOCH":"2026-03-27T09:41:53.263680","MEAN_MOTION":5.00115128,"ECCENTRICITY":0.00050688,"INCLINATION":0.0535,"RA_OF_ASC_NODE":345.5776,"ARG_OF_PERICENTER":27.4764,"MEAN_ANOMALY":346.9547,"EPHEMERIS_TYPE":0,"CLASSIFICATION_TYPE":"U","NORAD_CAT_ID":39189,"ELEMENT_SET_NO":999,"REV_AT_EPOCH":23295,"BSTAR":0,"MEAN_MOTION_DOT":-2.8e-7,"MEAN_MOTION_DDOT":0},{"OBJECT_NAME":"O3B FM2","OBJECT_ID":"2013-031C","EPOCH":"2026-04-03T11:10:53.874048","MEAN_MOTION":5.00116081,"ECCENTRICITY":0.00028,"INCLINATION":0.0517,"RA_OF_ASC_NODE":339.0554,"ARG_OF_PERICENTER":31.4742,"MEAN_ANOMALY":349.4743,"EPHEMERIS_TYPE":0,"CLASSIFICATION_TYPE":"U","NORAD_CAT_ID":39190,"ELEMENT_SET_NO":999,"REV_AT_EPOCH":23337,"BSTAR":0,"MEAN_MOTION_DOT":-2.6e-7,"MEAN_MOTION_DDOT":0},{"OBJECT_NAME":"O3B PFM","OBJECT_ID":"2013-031D","EPOCH":"2026-04-03T21:06:54.500544","MEAN_MOTION":5.00116065,"ECCENTRICITY":0.00053955,"INCLINATION":0.0701,"RA_OF_ASC_NODE":3.9943,"ARG_OF_PERICENTER":16.2253,"MEAN_ANOMALY":339.8,"EPHEMERIS_TYPE":0,"CLASSIFICATION_TYPE":"U","NORAD_CAT_ID":39191,"ELEMENT_SET_NO":999,"REV_AT_EPOCH":23295,"BSTAR":0,"MEAN_MOTION_DOT":-2.6e-7,"MEAN_MOTION_DDOT":0},{"OBJECT_NAME":"ASTRA 2E","OBJECT_ID":"2013-056A","EPOCH":"2026-04-04T04:31:38.667936","MEAN_MOTION":1.00271947,"ECCENTRICITY":0.00023259,"INCLINATION":0.0859,"RA_OF_ASC_NODE":42.4215,"ARG_OF_PERICENTER":329.2345,"MEAN_ANOMALY":277.2391,"EPHEMERIS_TYPE":0,"CLASSIFICATION_TYPE":"U","NORAD_CAT_ID":39285,"ELEMENT_SET_NO":999,"REV_AT_EPOCH":4567,"BSTAR":0,"MEAN_MOTION_DOT":1.5e-6,"MEAN_MOTION_DDOT":0},{"OBJECT_NAME":"SES-8","OBJECT_ID":"2013-071A","EPOCH":"2026-04-04T02:58:13.405728","MEAN_MOTION":1.00272372,"ECCENTRICITY":0.00023653,"INCLINATION":0.0238,"RA_OF_ASC_NODE":257.1171,"ARG_OF_PERICENTER":145.2887,"MEAN_ANOMALY":289.5896,"EPHEMERIS_TYPE":0,"CLASSIFICATION_TYPE":"U","NORAD_CAT_ID":39460,"ELEMENT_SET_NO":999,"REV_AT_EPOCH":4369,"BSTAR":0,"MEAN_MOTION_DOT":-2.7e-6,"MEAN_MOTION_DDOT":0},{"OBJECT_NAME":"ASTRA 5B","OBJECT_ID":"2014-011B","EPOCH":"2026-04-04T04:39:38.850624","MEAN_MOTION":1.00272806,"ECCENTRICITY":0.00033994,"INCLINATION":0.0751,"RA_OF_ASC_NODE":305.5388,"ARG_OF_PERICENTER":48.5875,"MEAN_ANOMALY":291.7774,"EPHEMERIS_TYPE":0,"CLASSIFICATION_TYPE":"U","NORAD_CAT_ID":39617,"ELEMENT_SET_NO":999,"REV_AT_EPOCH":4392,"BSTAR":0,"MEAN_MOTION_DOT":1.36e-6,"MEAN_MOTION_DDOT":0},{"OBJECT_NAME":"O3B FM3","OBJECT_ID":"2014-038A","EPOCH":"2026-04-03T13:07:10.992864","MEAN_MOTION":5.00115642,"ECCENTRICITY":0.0001008,"INCLINATION":0.0526,"RA_OF_ASC_NODE":354.6654,"ARG_OF_PERICENTER":85.2025,"MEAN_ANOMALY":280.1416,"EPHEMERIS_TYPE":0,"CLASSIFICATION_TYPE":"U","NORAD_CAT_ID":40079,"ELEMENT_SET_NO":999,"REV_AT_EPOCH":20931,"BSTAR":0,"MEAN_MOTION_DOT":-2.6e-7,"MEAN_MOTION_DDOT":0},{"OBJECT_NAME":"O3B FM7","OBJECT_ID":"2014-038B","EPOCH":"2026-04-03T21:25:14.686176","MEAN_MOTION":5.00115689,"ECCENTRICITY":0.00042766,"INCLINATION":0.0568,"RA_OF_ASC_NODE":348.1667,"ARG_OF_PERICENTER":10.66,"MEAN_ANOMALY":1.1706,"EPHEMERIS_TYPE":0,"CLASSIFICATION_TYPE":"U","NORAD_CAT_ID":40080,"ELEMENT_SET_NO":999,"REV_AT_EPOCH":21416,"BSTAR":0,"MEAN_MOTION_DOT":-2.6e-7,"MEAN_MOTION_DDOT":0},{"OBJECT_NAME":"O3B FM6","OBJECT_ID":"2014-038C","EPOCH":"2026-04-04T02:51:57.966624","MEAN_MOTION":5.00115756,"ECCENTRICITY":0.00026409,"INCLINATION":0.0537,"RA_OF_ASC_NODE":351.8683,"ARG_OF_PERICENTER":20.4942,"MEAN_ANOMALY":347.6423,"EPHEMERIS_TYPE":0,"CLASSIFICATION_TYPE":"U","NORAD_CAT_ID":40081,"ELEMENT_SET_NO":999,"REV_AT_EPOCH":21411,"BSTAR":0,"MEAN_MOTION_DOT":-2.6e-7,"MEAN_MOTION_DDOT":0},{"OBJECT_NAME":"O3B FM8","OBJECT_ID":"2014-038D","EPOCH":"2026-04-03T23:20:52.568160","MEAN_MOTION":5.00116026,"ECCENTRICITY":0.00026772,"INCLINATION":0.0543,"RA_OF_ASC_NODE":350.9466,"ARG_OF_PERICENTER":24.5126,"MEAN_ANOMALY":344.5474,"EPHEMERIS_TYPE":0,"CLASSIFICATION_TYPE":"U","NORAD_CAT_ID":40082,"ELEMENT_SET_NO":999,"REV_AT_EPOCH":21423,"BSTAR":0,"MEAN_MOTION_DOT":-2.6e-7,"MEAN_MOTION_DDOT":0}]
