SES-2                   
1 37809U 11049A   26094.17961351 -.00000197  00000+0  00000+0 0  9992
2 37809   0.0544  65.7512 0002948 309.8626 154.5451  1.00272411 53220
QUETZSAT 1              
1 37826U 11054A   26094.23227337 -.00000242  00000+0  00000+0 0  9994
2 37826   0.0494  59.2742 0002321 313.5282 186.3740  1.00272088 49130
SES-4                   
1 38087U 12007A   26094.21642233 -.00000169  00000+0  00000+0 0  9995
2 38087   0.0293  65.6049 0002267 315.9599 226.8854  1.00271821 51485
SES-5                   
1 38652U 12036A   26094.17723981  .00000033  00000+0  00000+0 0  9999
2 38652   0.0597 304.3178 0001981  71.5629 245.3841  1.00270782 43711
ASTRA 2F                
1 38778U 12051A   26094.18864199  .00000149  00000+0  00000+0 0  9991
2 38778   0.0674 255.2493 0001522  31.8562   1.5201  1.00269385 40396
SES-6                   
1 39172U 13026A   26094.22753240 -.00000262  00000+0  00000+0 0  9999
2 39172   0.0403 290.7766 0002702  84.3301 218.8500  1.00273153 46981
O3B FM5                 
1 39188U 13031A   26094.08059846 -.00000026  00000+0  00000+0 0  9995
2 39188   0.1018   5.9687 0003217 357.9536 356.0787  5.00116518233334
O3B FM4                 
1 39189U 13031B   26086.40408870 -.00000028  00000+0  00000+0 0  9990
2 39189   0.0535 345.5776 0005068  27.4764 346.9547  5.00115128232953
O3B FM2                 
1 39190U 13031C   26093.46590132 -.00000026  00000+0  00000+0 0  9997
2 39190   0.0517 339.0554 0002800  31.4742 349.4743  5.00116081233371
O3B PFM                 
1 39191U 13031D   26093.87979746 -.00000026  00000+0  00000+0 0  9995
2 39191   0.0701   3.9943 0005395  16.2253 339.8000  5.00116065232950
ASTRA 2E                
1 39285U 13056A   26094.18864199  .00000150  00000+0  00000+0 0  9993
2 39285   0.0859  42.4215 0002325 329.2345 277.2391  1.00271947 45673
SES-8                   
1 39460U 13071A   26094.12376627 -.00000270  00000+0  00000+0 0  9997
2 39460   0.0238 257.1171 0002365 145.2887 289.5896  1.00272372 43695
ASTRA 5B                
1 39617U 14011B   26094.19419966  .00000136  00000+0  00000+0 0  9997
2 39617   0.0751 305.5388 0003399  48.5875 291.7774  1.00272806 43925
O3B FM3                 
1 40079U 14038A   26093.54665501 -.00000026  00000+0  00000+0 0  9995
2 40079   0.0526 354.6654 0001008  85.2025 280.1416  5.00115642209310
O3B FM7                 
1 40080U 14038B   26093.89253109 -.00000026  00000+0  00000+0 0  9992
2 40080   0.0568 348.1667 0004276  10.6600   1.1706  5.00115689214164
O3B FM6                 
1 40081U 14038C   26094.11942091 -.00000026  00000+0  00000+0 0  9994
2 40081   0.0537 351.8683 0002640  20.4942 347.6423  5.00115756214115
O3B FM8                 
1 40082U 14038D   26093.97283065 -.00000026  00000+0  00000+0 0  9997
2 40082   0.0543 350.9466 0002677  24.5126 344.5474  5.00116026214237
